{
    "links": {
        "self": "http://www.neowsapp.com/rest/v1/neo/3841523?api_key=iIulBulltgU6a56xZRHN4H3l9WmuAYTsLGpBGhQ2"
    },
    "id": "3841523",
    "neo_reference_id": "3841523",
    "name": "(2019 GP21)",
    "designation": "2019 GP21",
    "nasa_jpl_url": "http://ssd.jpl.nasa.gov/sbdb.cgi?sstr=3841523",
    "absolute_magnitude_h": 29.762,
    "estimated_diameter": {
        "kilometers": {
            "estimated_diameter_min": 0.0029658896,
            "estimated_diameter_max": 0.0066319307
        },
        "meters": {
            "estimated_diameter_min": 2.965889569,
            "estimated_diameter_max": 6.63193069
        },
        "miles": {
            "estimated_diameter_min": 0.0018429178,
            "estimated_diameter_max": 0.0041208894
        },
        "feet": {
            "estimated_diameter_min": 9.7306091335,
            "estimated_diameter_max": 21.758303485
        }
    },
    "is_potentially_hazardous_asteroid": false,
    "close_approach_data": [
        {
            "close_approach_date": "2019-03-31",
            "close_approach_date_full": "2019-Mar-31 16:19",
            "epoch_date_close_approach": 1554049140000,
            "relative_velocity": {
                "kilometers_per_second": "11.8970199535",
                "kilometers_per_hour": "42829.2718326673",
                "miles_per_hour": "26612.443934026"
            },
            "miss_distance": {
                "astronomical": "0.0048965152",
                "lunar": "1.9047444128",
                "kilometers": "732508.244342624",
                "miles": "455159.5170072512"
            },
            "orbiting_body": "Moon"
        },
        {
            "close_approach_date": "2019-03-31",
            "close_approach_date_full": "2019-Mar-31 19:00",
            "epoch_date_close_approach": 1554058800000,
            "relative_velocity": {
                "kilometers_per_second": "10.9775316144",
                "kilometers_per_hour": "39519.1138118522",
                "miles_per_hour": "24555.640468259"
            },
            "miss_distance": {
                "astronomical": "0.0023796003",
                "lunar": "0.9256645167",
                "kilometers": "355983.136331361",
                "miles": "221197.6638443418"
            },
            "orbiting_body": "Earth"
        }
    ],
    "orbital_data": {
        "orbit_id": "1",
        "orbit_determination_date": "2019-04-23 07:26:57",
        "first_observation_date": "2019-04-03",
        "last_observation_date": "2019-04-04",
        "data_arc_in_days": 1,
        "observations_used": 7,
        "orbit_uncertainty": "9",
        "minimum_orbit_intersection": ".000719819",
        "jupiter_tisserand_invariant": "4.055",
        "epoch_osculation": "2458577.5",
        "eccentricity": ".493842227109303",
        "semi_major_axis": "1.700050762313948",
        "inclination": ".3328639486911239",
        "ascending_node_longitude": "197.2191635926001",
        "orbital_period": "809.6387036174945",
        "perihelion_distance": ".8604939076539596",
        "perihelion_argument": "298.5036131155964",
        "aphelion_distance": "2.539607616973937",
        "perihelion_time": "2458534.085765832640",
        "mean_anomaly": "19.30382555875617",
        "mean_motion": ".4446427750940107",
        "equinox": "J2000",
        "orbit_class": {
            "orbit_class_type": "APO",
            "orbit_class_description": "Near-Earth asteroid orbits which cross the Earth’s orbit similar to that of 1862 Apollo",
            "orbit_class_range": "a (semi-major axis) > 1.0 AU; q (perihelion) < 1.017 AU"
        }
    },
    "is_sentry_object": false
}